{
  "norad_id": 50200,
  "name": "STARLINK-3235",
  "history": [
    {
      "epoch": "2026-03-28T21:23:18.336480Z",
      "apogee_km": 540.7070754513379,
      "perigee_km": 538.7627383731815,
      "latitude_deg": -3.465531446600983e-05,
      "longitude_deg": 5.7515448338690955,
      "height_km": 540.5390964782661,
      "semi_major_axis_km": 6917.87190691226,
      "eccentricity": 0.00014053,
      "inclination_deg": 53.2174,
      "raan_deg": 152.8831,
      "arg_perigee_deg": 84.6011,
      "mean_anomaly_deg": 275.5141,
      "mean_motion_rev_day": 15.08842775
    },
    {
      "epoch": "2026-03-29T03:44:51.121536Z",
      "apogee_km": 540.7568593363558,
      "perigee_km": 538.7285370088512,
      "latitude_deg": -3.849090748109941e-05,
      "longitude_deg": -91.08532162410954,
      "height_km": 540.551130440773,
      "semi_major_axis_km": 6917.879698172603,
      "eccentricity": 0.0001466,
      "inclination_deg": 53.2173,
      "raan_deg": 151.694,
      "arg_perigee_deg": 85.0714,
      "mean_anomaly_deg": 275.0445,
      "mean_motion_rev_day": 15.08840226
    },
    {
      "epoch": "2026-03-30T03:35:37.891968Z",
      "apogee_km": 541.166140614585,
      "perigee_km": 538.2896923823055,
      "latitude_deg": -1.37316880899397e-05,
      "longitude_deg": -94.21851318722408,
      "height_km": 540.4305640981054,
      "semi_major_axis_km": 6917.864916498445,
      "eccentricity": 0.0002079,
      "inclination_deg": 53.2161,
      "raan_deg": 147.235,
      "arg_perigee_deg": 82.3313,
      "mean_anomaly_deg": 277.7915,
      "mean_motion_rev_day": 15.08845062
    },
    {
      "epoch": "2026-03-30T13:07:56.938656Z",
      "apogee_km": 540.7172175848318,
      "perigee_km": 538.7839447214037,
      "latitude_deg": 5.786232609764475e-06,
      "longitude_deg": 120.5251032136848,
      "height_km": 540.5886248755642,
      "semi_major_axis_km": 6917.887581153118,
      "eccentricity": 0.00013973,
      "inclination_deg": 53.2156,
      "raan_deg": 145.4497,
      "arg_perigee_deg": 86.5944,
      "mean_anomaly_deg": 273.5208,
      "mean_motion_rev_day": 15.08837647
    },
    {
      "epoch": "2026-03-31T20:55:39.198144Z",
      "apogee_km": 540.6008308640976,
      "perigee_km": 538.8423112153378,
      "latitude_deg": 1.6956159557125377e-05,
      "longitude_deg": -3.655045144568018,
      "height_km": 540.9052872220748,
      "semi_major_axis_km": 6917.858571039717,
      "eccentricity": 0.0001271,
      "inclination_deg": 53.2152,
      "raan_deg": 139.5014,
      "arg_perigee_deg": 109.1221,
      "mean_anomaly_deg": 250.9909,
      "mean_motion_rev_day": 15.08847138
    },
    {
      "epoch": "2026-04-01T09:38:44.971296Z",
      "apogee_km": 540.7691913534427,
      "perigee_km": 538.7505490467192,
      "latitude_deg": 1.9239332515439805e-07,
      "longitude_deg": 162.66996746330923,
      "height_km": 540.7829117114509,
      "semi_major_axis_km": 6917.896870200081,
      "eccentricity": 0.0001459,
      "inclination_deg": 53.2164,
      "raan_deg": 137.1228,
      "arg_perigee_deg": 97.261,
      "mean_anomaly_deg": 262.8548,
      "mean_motion_rev_day": 15.08834608
    },
    {
      "epoch": "2026-04-02T19:01:50.435040Z",
      "apogee_km": 540.7114887073876,
      "perigee_km": 538.7509648519181,
      "latitude_deg": 2.6774237951757688e-05,
      "longitude_deg": 14.281755805033013,
      "height_km": 540.7281671296518,
      "semi_major_axis_km": 6917.868226779653,
      "eccentricity": 0.0001417,
      "inclination_deg": 53.2175,
      "raan_deg": 130.8784,
      "arg_perigee_deg": 95.9313,
      "mean_anomaly_deg": 264.1841,
      "mean_motion_rev_day": 15.08843979
    },
    {
      "epoch": "2026-04-02T19:01:50.435904Z",
      "apogee_km": 540.7114195287058,
      "perigee_km": 538.7510340306007,
      "latitude_deg": 2.7692815617596704e-05,
      "longitude_deg": 14.281752878155558,
      "height_km": 540.7281599811482,
      "semi_major_axis_km": 6917.868226779653,
      "eccentricity": 0.00014169,
      "inclination_deg": 53.2175,
      "raan_deg": 130.8784,
      "arg_perigee_deg": 95.9313,
      "mean_anomaly_deg": 264.1841,
      "mean_motion_rev_day": 15.08843979
    },
    {
      "epoch": "2026-04-03T09:20:18.987360Z",
      "apogee_km": 540.7082606417925,
      "perigee_km": 538.7850889801957,
      "latitude_deg": -4.548394377635086e-05,
      "longitude_deg": 156.39922834046004,
      "height_km": 540.7431712496444,
      "semi_major_axis_km": 6917.883674810994,
      "eccentricity": 0.000139,
      "inclination_deg": 53.2176,
      "raan_deg": 128.2025,
      "arg_perigee_deg": 96.0169,
      "mean_anomaly_deg": 264.0981,
      "mean_motion_rev_day": 15.08838925
    }
  ]
}